GLOBALSTAR M063         
1 26081U 00008A   24192.72859177 -.00000068  00000+0  21335-3 0  9990
2 26081  51.9962 290.8436 0004274  25.9591 130.6469 11.86157000117053
GLOBALSTAR M062         
1 26082U 00008B   24192.91627094  .00000026  00000+0  89104-3 0  9994
2 26082  51.9861  19.3370 0007869 102.1655  41.5632 12.43442156454166
GLOBALSTAR M060         
1 26083U 00008C   24192.56913899  .00000047  00000+0  13718-2 0  9997
2 26083  52.0032 292.0378 0003937 150.7005 222.8506 12.17636789110753
GLOBALSTAR M064         
1 26084U 00008D   24192.86579915 -.00000076  00000+0  99919-4 0  9990
2 26084  52.0047  33.3325 0002179 104.1496 255.9578 11.88520261126625
GLOBALSTAR M065         
1 31571U 07020A   24192.73311159 -.00000083  00000+0  11541-3 0  9990
2 31571  51.9864 185.5149 0009829 271.8793 258.7780 12.61973709790299
GLOBALSTAR M071         
1 31576U 07020F   24192.87345402 -.00000085  00000+0  10313-3 0  9996
2 31576  52.0050 146.0688 0000686  32.7281 345.9377 12.62269366452633
